start=new Date('2022-11-23T00:00:00.000Z').valueOf();
sats=[{"MEAN_MOTION_DOT":"0.00001106","TIME_SYSTEM":"UTC","MEAN_ELEMENT_THEORY":"SGP4","ECCENTRICITY":"0.00017860","ARG_OF_PERICENTER":"60.4880","TLE_LINE2":"2 46725  53.0541 257.9190 0001786  60.4880 299.6287 15.06392910115573","OBJECT_ID":"2020-073BH","EPHEMERIS_TYPE":"0","REF_FRAME":"TEME","FILE":"3667274","CLASSIFICATION_TYPE":"U","SITE":"AFETR","ELEMENT_SET_NO":"999","GP_ID":"218469299","OBJECT_TYPE":"PAYLOAD","APOAPSIS":"548.472","NORAD_CAT_ID":"46725","RA_OF_ASC_NODE":"257.9190","PERIAPSIS":"545.998","SEMIMAJOR_AXIS":"6925.370","DECAY_DATE":null,"BSTAR":"0.00009316500000","MEAN_MOTION_DDOT":"0.0000000000000","REV_AT_EPOCH":"11557","INCLINATION":"53.0541","CENTER_NAME":"EARTH","MEAN_ANOMALY":"299.6287","PERIOD":"95.593","COUNTRY_CODE":"US","TLE_LINE1":"1 46725U 20073BH  22326.50839249  .00001106  00000-0  93165-4 0  9997","LAUNCH_DATE":"2020-10-18","OBJECT_NAME":"STARLINK-1828","EPOCH":"2022-11-22T12:12:05.111136","MEAN_MOTION":"15.06392910","RCS_SIZE":"LARGE"},{"MEAN_ANOMALY":"259.6075","PERIOD":"95.592","CENTER_NAME":"EARTH","BSTAR":"0.00015674000000","MEAN_MOTION_DDOT":"0.0000000000000","REV_AT_EPOCH":"11621","INCLINATION":"53.0547","DECAY_DATE":null,"SEMIMAJOR_AXIS":"6925.353","PERIAPSIS":"546.323","OBJECT_NAME":"STARLINK-1829","LAUNCH_DATE":"2020-10-18","TLE_LINE1":"1 46726U 20073BJ  22326.20104892  .00002054  00000-0  15674-3 0  9995","COUNTRY_CODE":"US","RCS_SIZE":"LARGE","MEAN_MOTION":"15.06398705","EPOCH":"2022-11-22T04:49:30.626688","MEAN_ELEMENT_THEORY":"SGP4","ECCENTRICITY":"0.00012910","TIME_SYSTEM":"UTC","MEAN_MOTION_DOT":"0.00002054","EPHEMERIS_TYPE":"0","OBJECT_ID":"2020-073BJ","TLE_LINE2":"2 46726  53.0547 244.2825 0001291 100.5059 259.6075 15.06398705116210","ARG_OF_PERICENTER":"100.5059","SITE":"AFETR","CLASSIFICATION_TYPE":"U","FILE":"3667414","REF_FRAME":"TEME","RA_OF_ASC_NODE":"244.2825","NORAD_CAT_ID":"46726","APOAPSIS":"548.112","OBJECT_TYPE":"PAYLOAD","ELEMENT_SET_NO":"999","GP_ID":"218478841"},{"EPOCH":"2022-11-22T10:09:59.909184","RCS_SIZE":"LARGE","MEAN_MOTION":"15.06403585","COUNTRY_CODE":"US","OBJECT_NAME":"STARLINK-1830","LAUNCH_DATE":"2020-10-18","TLE_LINE1":"1 46727U 20073BK  22326.42361006  .00001383  00000-0  11173-3 0  9996","DECAY_DATE":null,"SEMIMAJOR_AXIS":"6925.338","PERIAPSIS":"545.912","MEAN_ANOMALY":"301.0762","PERIOD":"95.592","CENTER_NAME":"EARTH","REV_AT_EPOCH":"11612","MEAN_MOTION_DDOT":"0.0000000000000","BSTAR":"0.00011173000000","INCLINATION":"53.0550","APOAPSIS":"548.493","OBJECT_TYPE":"PAYLOAD","GP_ID":"218468797","ELEMENT_SET_NO":"999","RA_OF_ASC_NODE":"218.3032","NORAD_CAT_ID":"46727","SITE":"AFETR","CLASSIFICATION_TYPE":"U","FILE":"3667274","REF_FRAME":"TEME","ARG_OF_PERICENTER":"59.0410","EPHEMERIS_TYPE":"0","OBJECT_ID":"2020-073BK","TLE_LINE2":"2 46727  53.0550 218.3032 0001863  59.0410 301.0762 15.06403585116129","MEAN_MOTION_DOT":"0.00001383","MEAN_ELEMENT_THEORY":"SGP4","ECCENTRICITY":"0.00018630","TIME_SYSTEM":"UTC"},{"EPOCH":"2022-11-22T07:37:24.260160","RCS_SIZE":"LARGE","MEAN_MOTION":"15.06394083","DECAY_DATE":null,"PERIAPSIS":"546.113","SEMIMAJOR_AXIS":"6925.367","CENTER_NAME":"EARTH","MEAN_ANOMALY":"294.8798","PERIOD":"95.593","INCLINATION":"53.0549","MEAN_MOTION_DDOT":"0.0000000000000","BSTAR":"0.00003432000000","REV_AT_EPOCH":"11522","COUNTRY_CODE":"US","TLE_LINE1":"1 46740U 20074B   22326.31764190  .00000230  00000-0  34320-4 0  9991","LAUNCH_DATE":"2020-10-24","OBJECT_NAME":"STARLINK-1848","FILE":"3667274","SITE":"AFETR","CLASSIFICATION_TYPE":"U","REF_FRAME":"TEME","APOAPSIS":"548.350","GP_ID":"218469049","ELEMENT_SET_NO":"999","OBJECT_TYPE":"PAYLOAD","RA_OF_ASC_NODE":"328.7763","NORAD_CAT_ID":"46740","MEAN_MOTION_DOT":"0.00000230","ECCENTRICITY":"0.00016150","MEAN_ELEMENT_THEORY":"SGP4","TIME_SYSTEM":"UTC","ARG_OF_PERICENTER":"65.2359","EPHEMERIS_TYPE":"0","TLE_LINE2":"2 46740  53.0549 328.7763 0001615  65.2359 294.8798 15.06394083115225","OBJECT_ID":"2020-074B"},{"ARG_OF_PERICENTER":"58.7442","EPHEMERIS_TYPE":"0","TLE_LINE2":"2 46741  53.0575 321.9132 0001734  58.7442 301.3716 15.06399675115363","OBJECT_ID":"2020-074C","MEAN_MOTION_DOT":"0.00001700","MEAN_ELEMENT_THEORY":"SGP4","ECCENTRICITY":"0.00017340","TIME_SYSTEM":"UTC","APOAPSIS":"548.415","GP_ID":"218500925","ELEMENT_SET_NO":"999","OBJECT_TYPE":"PAYLOAD","RA_OF_ASC_NODE":"321.9132","NORAD_CAT_ID":"46741","FILE":"3667517","CLASSIFICATION_TYPE":"U","SITE":"AFETR","REF_FRAME":"TEME","COUNTRY_CODE":"US","TLE_LINE1":"1 46741U 20074C   22326.73276681  .00001700  00000-0  13300-3 0  9998","LAUNCH_DATE":"2020-10-24","OBJECT_NAME":"STARLINK-1865","DECAY_DATE":null,"PERIAPSIS":"546.014","SEMIMAJOR_AXIS":"6925.350","CENTER_NAME":"EARTH","MEAN_ANOMALY":"301.3716","PERIOD":"95.592","MEAN_MOTION_DDOT":"0.0000000000000","REV_AT_EPOCH":"11536","BSTAR":"0.00013300000000","INCLINATION":"53.0575","EPOCH":"2022-11-22T17:35:11.052384","RCS_SIZE":"LARGE","MEAN_MOTION":"15.06399675"},{"DECAY_DATE":null,"PERIAPSIS":"405.874","SEMIMAJOR_AXIS":"6787.461","CENTER_NAME":"EARTH","PERIOD":"92.751","MEAN_ANOMALY":"282.7183","MEAN_MOTION_DDOT":"0.0000000000000","BSTAR":"0.00053476000000","REV_AT_EPOCH":"11558","INCLINATION":"53.0539","COUNTRY_CODE":"US","TLE_LINE1":"1 46742U 20074D   22326.42056530  .00033054  00000-0  53476-3 0  9999","OBJECT_NAME":"STARLINK-1872","LAUNCH_DATE":"2020-10-24","EPOCH":"2022-11-22T10:05:36.841920","MEAN_MOTION":"15.52536343","RCS_SIZE":"LARGE","MEAN_MOTION_DOT":"0.00033054","ECCENTRICITY":"0.00050860","MEAN_ELEMENT_THEORY":"SGP4","TIME_SYSTEM":"UTC","ARG_OF_PERICENTER":"77.4394","EPHEMERIS_TYPE":"0","TLE_LINE2":"2 46742  53.0539 304.0560 0005086  77.4394 282.7183 15.52536343115589","OBJECT_ID":"2020-074D","FILE":"3667274","SITE":"AFETR","CLASSIFICATION_TYPE":"U","REF_FRAME":"TEME","APOAPSIS":"412.778","GP_ID":"218470035","ELEMENT_SET_NO":"999","OBJECT_TYPE":"PAYLOAD","RA_OF_ASC_NODE":"304.0560","NORAD_CAT_ID":"46742"},{"MEAN_MOTION_DOT":"0.00004733","TIME_SYSTEM":"UTC","ECCENTRICITY":"0.00016040","MEAN_ELEMENT_THEORY":"SGP4","ARG_OF_PERICENTER":"64.6723","TLE_LINE2":"2 46743  53.0547 322.8187 0001604  64.6723 295.4432 15.06407540115334","OBJECT_ID":"2020-074E","EPHEMERIS_TYPE":"0","REF_FRAME":"TEME","FILE":"3667274","SITE":"AFETR","CLASSIFICATION_TYPE":"U","ELEMENT_SET_NO":"999","GP_ID":"218468798","OBJECT_TYPE":"PAYLOAD","APOAPSIS":"548.301","NORAD_CAT_ID":"46743","RA_OF_ASC_NODE":"322.8187","PERIAPSIS":"546.080","SEMIMAJOR_AXIS":"6925.325","DECAY_DATE":null,"MEAN_MOTION_DDOT":"0.0000000000000","BSTAR":"0.00033634000000","REV_AT_EPOCH":"11533","INCLINATION":"53.0547","CENTER_NAME":"EARTH","PERIOD":"95.592","MEAN_ANOMALY":"295.4432","COUNTRY_CODE":"US","TLE_LINE1":"1 46743U 20074E   22326.52635651  .00004733  00000-0  33634-3 0  9994","OBJECT_NAME":"STARLINK-1892","LAUNCH_DATE":"2020-10-24","EPOCH":"2022-11-22T12:37:57.202464","RCS_SIZE":"LARGE","MEAN_MOTION":"15.06407540"},{"CENTER_NAME":"EARTH","PERIOD":"95.592","MEAN_ANOMALY":"309.9101","MEAN_MOTION_DDOT":"0.0000000000000","INCLINATION":"53.0558","BSTAR":"0.00006097100000","REV_AT_EPOCH":"11529","DECAY_DATE":null,"PERIAPSIS":"545.528","SEMIMAJOR_AXIS":"6925.328","TLE_LINE1":"1 46744U 20074F   22326.27845645  .00000627  00000-0  60971-4 0  9996","LAUNCH_DATE":"2020-10-24","OBJECT_NAME":"STARLINK-1894","COUNTRY_CODE":"US","MEAN_MOTION":"15.06406714","RCS_SIZE":"LARGE","EPOCH":"2022-11-22T06:40:58.637280","ECCENTRICITY":"0.00024040","MEAN_ELEMENT_THEORY":"SGP4","TIME_SYSTEM":"UTC","MEAN_MOTION_DOT":"0.00000627","EPHEMERIS_TYPE":"0","TLE_LINE2":"2 46744  53.0558 323.9470 0002404  50.2100 309.9101 15.06406714115294","OBJECT_ID":"2020-074F","ARG_OF_PERICENTER":"50.2100","FILE":"3667274","SITE":"AFETR","CLASSIFICATION_TYPE":"U","REF_FRAME":"TEME","RA_OF_ASC_NODE":"323.9470","NORAD_CAT_ID":"46744","APOAPSIS":"548.858","ELEMENT_SET_NO":"999","GP_ID":"218469549","OBJECT_TYPE":"PAYLOAD"},{"COUNTRY_CODE":"US","TLE_LINE1":"1 46745U 20074G   22327.15195892  .01542024  12739-2  36875-2 0  9998","OBJECT_NAME":"STARLINK-1898","LAUNCH_DATE":"2020-10-24","DECAY_DATE":null,"PERIAPSIS":"280.534","SEMIMAJOR_AXIS":"6663.061","CENTER_NAME":"EARTH","PERIOD":"90.213","MEAN_ANOMALY":"265.0660","MEAN_MOTION_DDOT":"0.0012739000000","BSTAR":"0.00368750000000","REV_AT_EPOCH":"11706","INCLINATION":"53.0398","EPOCH":"2022-11-23T03:38:49.250688","MEAN_MOTION":"15.96217643","RCS_SIZE":"LARGE","ARG_OF_PERICENTER":"183.8669","EPHEMERIS_TYPE":"0","TLE_LINE2":"2 46745  53.0398 201.8958 0006591 183.8669 265.0660 15.96217643117065","OBJECT_ID":"2020-074G","MEAN_MOTION_DOT":"0.01542024","MEAN_ELEMENT_THEORY":"SGP4","ECCENTRICITY":"0.00065910","TIME_SYSTEM":"UTC","APOAPSIS":"289.317","GP_ID":"218507005","ELEMENT_SET_NO":"999","OBJECT_TYPE":"PAYLOAD","RA_OF_ASC_NODE":"201.8958","NORAD_CAT_ID":"46745","FILE":"3667518","SITE":"AFETR","CLASSIFICATION_TYPE":"U","REF_FRAME":"TEME"},{"REV_AT_EPOCH":"11532","MEAN_MOTION_DDOT":"0.0000000000000","BSTAR":"-0.00002096500000","INCLINATION":"53.0566","CENTER_NAME":"EARTH","PERIOD":"95.592","MEAN_ANOMALY":"322.9031","PERIAPSIS":"545.903","SEMIMAJOR_AXIS":"6925.320","DECAY_DATE":null,"TLE_LINE1":"1 46746U 20074H   22326.49317609 -.00000594  00000-0 -20965-4 0  9990","LAUNCH_DATE":"2020-10-24","OBJECT_NAME":"STARLINK-1905","COUNTRY_CODE":"US","MEAN_MOTION":"15.06409442","RCS_SIZE":"LARGE","EPOCH":"2022-11-22T11:50:10.414176","TIME_SYSTEM":"UTC","ECCENTRICITY":"0.00018500","MEAN_ELEMENT_THEORY":"SGP4","MEAN_MOTION_DOT":"-0.00000594","TLE_LINE2":"2 46746  53.0566 322.9825 0001850  37.2086 322.9031 15.06409442115322","OBJECT_ID":"2020-074H","EPHEMERIS_TYPE":"0","ARG_OF_PERICENTER":"37.2086","REF_FRAME":"TEME","FILE":"3667274","SITE":"AFETR","CLASSIFICATION_TYPE":"U","NORAD_CAT_ID":"46746","RA_OF_ASC_NODE":"322.9825","GP_ID":"218469537","ELEMENT_SET_NO":"999","OBJECT_TYPE":"PAYLOAD","APOAPSIS":"548.466"}];
